BLACKJACK ACES-3        
1 56950U 23084U   26068.93991824  .00008176  00000+0  37703-3 0  9993
2 56950  97.6035 203.4451 0003219  12.8502 347.2815 15.20514993152107
MONITOR-2 (RS39S)       
1 57184U 23091U   26068.93684604  .00006188  00000+0  30772-3 0  9996
2 57184  97.5198 127.8703 0013055  98.0854 262.1862 15.17917968148893
